OBJECT_NAME,OBJECT_ID,EPOCH,MEAN_MOTION,ECCENTRICITY,INCLINATION,RA_OF_ASC_NODE,ARG_OF_PERICENTER,MEAN_ANOMALY,EPHEMERIS_TYPE,CLASSIFICATION_TYPE,NORAD_CAT_ID,ELEMENT_SET_NO,REV_AT_EPOCH,BSTAR,MEAN_MOTION_DOT,MEAN_MOTION_DDOT
IONOSFERA-M 4,2025-155B,2026-07-19T20:53:34.083168,14.21493726,.0001887,98.6043,161.8733,94.8734,265.2659,0,U,64877,999,5104,.24064E-4,.1E-6,0
MICROCARB,2025-156A,2026-07-19T18:17:54.557664,14.72887935,.0017971,98.0072,277.4003,156.5598,203.6432,0,U,64899,999,5276,.44264E-4,.234E-5,0
CO3D 3,2025-156B,2026-07-19T20:03:27.327744,15.20212419,.000176,97.4331,279.0597,93.5874,266.5562,0,U,64900,999,5449,.10464E-3,.2199E-4,0
CO3D 4,2025-156C,2026-07-19T20:03:40.493376,15.20210937,.000196,97.4335,279.0594,144.7716,215.3649,0,U,64901,999,5449,.44807E-4,.903E-5,0
CO3D 2,2025-156D,2026-07-19T19:15:39.688416,15.20197479,.0001171,97.4332,278.9257,90.9239,269.2130,0,U,64902,999,5448,.96845E-4,.2029E-4,0
CO3D 1,2025-156E,2026-07-19T19:15:53.064000,15.20199216,.0001314,97.4330,278.9259,101.6628,258.4754,0,U,64903,999,5448,.96939E-4,.2031E-4,0
PRSC-S1,2025-164A,2026-07-19T19:31:19.526016,15.06657793,.0007369,41.1302,104.0278,226.0087,134.0120,0,U,65055,999,5335,.16511E-3,.2316E-4,0
SENTINEL-6B,2025-264A,2026-07-19T19:11:29.489568,12.80930252,.0007845,66.0411,67.4428,268.5843,91.4274,0,U,66514,999,3134,.16505E-4,-.57E-6,0
CAS500-3,2025-274F,2026-07-19T18:06:13.055328,14.88389467,.0005893,97.7433,128.0647,25.1681,334.9822,0,U,66655,999,3499,.66539E-4,.563E-5,0
CSG-3,2026-001A,2026-07-19T11:15:29.007936,14.82165421,.00015234,97.8898,23.6049,94.3856,265.7531,0,U,67304,999,2924,.20919544E-4,.114E-5,0
PRSC-E03,2026-092A,2026-07-19T20:38:39.454368,15.06819912,.0005025,38.0005,256.9922,279.7510,80.2684,0,U,68835,999,1288,.70306E-4,.957E-5,0
CAS500-2,2026-100AK,2026-07-19T17:23:41.098272,15.19753085,.0008064,97.3850,97.9534,234.5508,125.4975,0,U,69013,999,1175,.139E-3,.2906E-4,0
