IONOSFERA-M 4           
1 64877U 25155B   26200.87053337  .00000010  00000+0  24064-4 0  9996
2 64877  98.6043 161.8733 0001887  94.8734 265.2659 14.21493726 51046
MICROCARB               
1 64899U 25156A   26200.76243701  .00000234  00000+0  44264-4 0  9997
2 64899  98.0072 277.4003 0017971 156.5598 203.6432 14.72887935 52765
CO3D 3                  
1 64900U 25156B   26200.83573296  .00002199  00000+0  10464-3 0  9999
2 64900  97.4331 279.0597 0001760  93.5874 266.5562 15.20212419 54498
CO3D 4                  
1 64901U 25156C   26200.83588534  .00000903  00000+0  44807-4 0  9991
2 64901  97.4335 279.0594 0001960 144.7716 215.3649 15.20210937 54497
CO3D 2                  
1 64902U 25156D   26200.80254269  .00002029  00000+0  96845-4 0  9994
2 64902  97.4332 278.9257 0001171  90.9239 269.2130 15.20197479 54482
CO3D 1                  
1 64903U 25156E   26200.80269750  .00002031  00000+0  96939-4 0  9993
2 64903  97.4330 278.9259 0001314 101.6628 258.4754 15.20199216 54487
PRSC-S1                 
1 65055U 25164A   26200.81342044  .00002316  00000+0  16511-3 0  9993
2 65055  41.1302 104.0278 0007369 226.0087 134.0120 15.06657793 53352
SENTINEL-6B             
1 66514U 25264A   26200.79964687 -.00000057  00000+0  16505-4 0  9990
2 66514  66.0411  67.4428 0007845 268.5843  91.4274 12.80930252 31343
CAS500-3                
1 66655U 25274F   26200.75431777  .00000563  00000+0  66539-4 0  9995
2 66655  97.7433 128.0647 0005893  25.1681 334.9822 14.88389467 34993
CSG-3                   
1 67304U 26001A   26200.46908574  .00000114  00000+0  20920-4 0  9994
2 67304  97.8898  23.6049 0001523  94.3856 265.7531 14.82165421 29241
PRSC-E03                
1 68835U 26092A   26200.86017887  .00000957  00000+0  70306-4 0  9994
2 68835  38.0005 256.9922 0005025 279.7510  80.2684 15.06819912 12885
CAS500-2                
1 69013U 26100AK  26200.72478123  .00002906  00000+0  13900-3 0  9994
2 69013  97.3850  97.9534 0008064 234.5508 125.4975 15.19753085 11756
